{
  "version": 1,
  "fetchedAt": "2026-06-16T15:59:31.869Z",
  "source": "celestrak-gp",
  "counts": {
    "station": 25,
    "satellite": 400,
    "debris": 111
  },
  "objects": [
    {
      "id": "37948",
      "name": "BEIDOU-2 IGSO-5 (C10)",
      "noradId": 37948,
      "line1": "1 37948U 11073A   26166.77611045 -.00000167  00000+0  00000+0 0  9998",
      "line2": "2 37948  47.6807 271.5633 0113929 221.6546 141.9816  1.00273002 53129",
      "category": "satellite"
    },
    {
      "id": "37951",
      "name": "LUCH 5A (SDCM/PRN 140)",
      "noradId": 37951,
      "line1": "1 37951U 11074B   26166.50878299 -.00000054  00000+0  00000+0 0  9995",
      "line2": "2 37951   8.7499  73.8320 0002162  22.2945 157.7802  1.00270016 53030",
      "category": "satellite"
    },
    {
      "id": "38091",
      "name": "BEIDOU-2 G5 (C05)",
      "noradId": 38091,
      "line1": "1 38091U 12008A   26167.12621043  .00000055  00000+0  00000+0 0  9991",
      "line2": "2 38091   3.5705  69.6984 0009127 272.6469  26.1427  1.00271533 52359",
      "category": "satellite"
    },
    {
      "id": "38250",
      "name": "BEIDOU-2 M3 (C11)",
      "noradId": 38250,
      "line1": "1 38250U 12018A   26167.11475854 -.00000071  00000+0  00000+0 0  9994",
      "line2": "2 38250  55.7590 304.9118 0020107 274.0322  85.7212  1.86229792 95923",
      "category": "satellite"
    },
    {
      "id": "38251",
      "name": "BEIDOU-2 M4 (C12)",
      "noradId": 38251,
      "line1": "1 38251U 12018B   26167.04705756 -.00000071  00000+0  00000+0 0  9994",
      "line2": "2 38251  55.6594 304.1282 0011298 275.8686  83.9863  1.86229400 95922",
      "category": "satellite"
    },
    {
      "id": "38652",
      "name": "SES-5 (EGNOS/PRN 136)",
      "noradId": 38652,
      "line1": "1 38652U 12036A   26166.54522022  .00000036  00000+0  00000+0 0  9996",
      "line2": "2 38652   0.0490 313.0468 0001784 131.8566  20.1824  1.00271492 44443",
      "category": "satellite"
    },
    {
      "id": "38775",
      "name": "BEIDOU-2 M6 (C14)",
      "noradId": 38775,
      "line1": "1 38775U 12050B   26164.07202103 -.00000056  00000+0  00000+0 0  9992",
      "line2": "2 38775  56.5408  63.0305 0013772 356.7295   3.2873  1.86230840 93236",
      "category": "satellite"
    },
    {
      "id": "38779",
      "name": "GSAT-10 (GAGAN/PRN 128)",
      "noradId": 38779,
      "line1": "1 38779U 12051B   26167.13097712 -.00000164  00000+0  00000+0 0  9995",
      "line2": "2 38779   0.0832 262.8682 0007762 184.3864 307.3111  1.00269922 50089",
      "category": "satellite"
    },
    {
      "id": "38833",
      "name": "GPS BIIF-3  (PRN 24)",
      "noradId": 38833,
      "line1": "1 38833U 12053A   26166.32192713  .00000042  00000+0  00000+0 0  9999",
      "line2": "2 38833  53.5856 143.6757 0180190  65.7282 296.1113  2.00567382 99409",
      "category": "satellite"
    },
    {
      "id": "38857",
      "name": "GSAT0103 (GALILEO-FM3)",
      "noradId": 38857,
      "line1": "1 38857U 12055A   26165.54265692 -.00000011  00000+0  00000+0 0  9994",
      "line2": "2 38857  55.8050 101.6182 0004917 305.1909  54.7190  1.70473336 84960",
      "category": "satellite"
    },
    {
      "id": "38953",
      "name": "BEIDOU-2 G6 (C02)",
      "noradId": 38953,
      "line1": "1 38953U 12059A   26166.84599159 -.00000178  00000+0  00000+0 0  9991",
      "line2": "2 38953   4.4170  73.5329 0009592 324.3186 254.8650  1.00272204 49895",
      "category": "satellite"
    },
    {
      "id": "38977",
      "name": "LUCH 5B (SDCM/PRN 125)",
      "noradId": 38977,
      "line1": "1 38977U 12061A   26166.96871394 -.00000144  00000+0  00000+0 0  9990",
      "line2": "2 38977  10.4794  49.8909 0002521 151.7333  35.0817  1.00272153 49595",
      "category": "satellite"
    },
    {
      "id": "39155",
      "name": "COSMOS 2485 (747)",
      "noradId": 39155,
      "line1": "1 39155U 13019A   26166.97148047 -.00000021  00000+0  00000+0 0  9990",
      "line2": "2 39155  65.4190  73.6456 0023179 234.1140 125.7013  2.13103301102251",
      "category": "satellite"
    },
    {
      "id": "39166",
      "name": "GPS BIIF-4  (PRN 27)",
      "noradId": 39166,
      "line1": "1 39166U 13023A   26167.18601316 -.00000020  00000+0  00000+0 0  9993",
      "line2": "2 39166  54.5048 269.0144 0141533  51.0429 310.2445  2.00563391 95863",
      "category": "satellite"
    },
    {
      "id": "39199",
      "name": "IRNSS-1A",
      "noradId": 39199,
      "line1": "1 39199U 13034A   26160.59779131  .00000070  00000+0  00000+0 0  9994",
      "line2": "2 39199  35.7049  63.9797 0017411 184.2474 279.8453  1.00272948 47299",
      "category": "satellite"
    },
    {
      "id": "39533",
      "name": "GPS BIIF-5  (PRN 30)",
      "noradId": 39533,
      "line1": "1 39533U 14008A   26167.18763547  .00000044  00000+0  00000+0 0  9995",
      "line2": "2 39533  53.6545 149.3604 0084228 231.2656 127.9534  2.00559661 89663",
      "category": "satellite"
    },
    {
      "id": "39617",
      "name": "ASTRA 5B (EGNOS/PRN 123)",
      "noradId": 39617,
      "line1": "1 39617U 14011B   26167.11919041  .00000137  00000+0  00000+0 0  9990",
      "line2": "2 39617   0.0458 339.5773 0001747  95.2008 256.0236  1.00273006 44657",
      "category": "satellite"
    },
    {
      "id": "39620",
      "name": "COSMOS 2492 (754)",
      "noradId": 39620,
      "line1": "1 39620U 14012A   26165.05330889 -.00000053  00000+0  00000+0 0  9991",
      "line2": "2 39620  65.2995 314.0428 0010453 325.1473  34.7685  2.13103207 95172",
      "category": "satellite"
    },
    {
      "id": "39635",
      "name": "IRNSS-1B",
      "noradId": 39635,
      "line1": "1 39635U 14017A   26165.77103216  .00000132  00000+0  00000+0 0  9990",
      "line2": "2 39635  28.9259 240.4448 0023063 189.5629 165.7473  1.00275602 44760",
      "category": "satellite"
    },
    {
      "id": "39727",
      "name": "LUCH 5V (SDCM/PRN 141)",
      "noradId": 39727,
      "line1": "1 39727U 14023A   26167.13327763 -.00000273  00000+0  00000+0 0  9993",
      "line2": "2 39727   5.1293  69.7499 0001804  47.9025 289.4303  1.00274812 44343",
      "category": "satellite"
    },
    {
      "id": "39741",
      "name": "GPS BIIF-6  (PRN 06)",
      "noradId": 39741,
      "line1": "1 39741U 14026A   26165.96736685 -.00000079  00000+0  00000+0 0  9992",
      "line2": "2 39741  56.4994 331.6038 0038185 326.5886  33.1644  2.00561046 88494",
      "category": "satellite"
    },
    {
      "id": "40001",
      "name": "COSMOS 2500 (755)",
      "noradId": 40001,
      "line1": "1 40001U 14032A   26164.28459738 -.00000051  00000+0  00000+0 0  9995",
      "line2": "2 40001  65.2352 313.8168 0007281 184.1744 175.8059  2.13106047 93378",
      "category": "satellite"
    },
    {
      "id": "40105",
      "name": "GPS BIIF-7  (PRN 09)",
      "noradId": 40105,
      "line1": "1 40105U 14045A   26167.05630183 -.00000025  00000+0  00000+0 0  9998",
      "line2": "2 40105  55.3526  88.5100 0033261 118.2714 242.0580  2.00558250 86056",
      "category": "satellite"
    },
    {
      "id": "40128",
      "name": "GSAT0201 (GALILEO 5)",
      "noradId": 40128,
      "line1": "1 40128U 14050A   26164.64403526 -.00000043  00000+0  00000+0 0  9990",
      "line2": "2 40128  48.8793 273.5817 1673953 179.2575 181.0766  1.85519952 78255",
      "category": "satellite"
    },
    {
      "id": "40129",
      "name": "GSAT0202 (GALILEO 6)",
      "noradId": 40129,
      "line1": "1 40129U 14050B   26165.97755825 -.00000039  00000+0  00000+0 0  9995",
      "line2": "2 40129  48.8947 272.6125 1675464 180.0339 180.0074  1.85520518 80441",
      "category": "satellite"
    },
    {
      "id": "40269",
      "name": "IRNSS-1C",
      "noradId": 40269,
      "line1": "1 40269U 14061A   26166.84573159 -.00000164  00000+0  00000+0 0  9996",
      "line2": "2 40269   6.5145  88.9566 0022724   2.2755 200.3394  1.00269545 42676",
      "category": "satellite"
    },
    {
      "id": "40294",
      "name": "GPS BIIF-8  (PRN 03)",
      "noradId": 40294,
      "line1": "1 40294U 14068A   26166.92633972 -.00000068  00000+0  00000+0 0  9993",
      "line2": "2 40294  56.9867  31.0033 0067029  70.5476 290.2360  2.00576019 85189",
      "category": "satellite"
    },
    {
      "id": "40315",
      "name": "COSMOS 2501 (702K)",
      "noradId": 40315,
      "line1": "1 40315U 14075A   26166.42368334  .00000087  00000+0  00000+0 0  9997",
      "line2": "2 40315  63.6162 190.4330 0022617 212.3398 147.5841  2.13101307 89819",
      "category": "satellite"
    },
    {
      "id": "40534",
      "name": "GPS BIIF-9  (PRN 26)",
      "noradId": 40534,
      "line1": "1 40534U 15013A   26167.06524982  .00000062  00000+0  00000+0 0  9990",
      "line2": "2 40534  53.1679 204.2241 0109481  40.1162 320.7657  2.00551431 81809",
      "category": "satellite"
    },
    {
      "id": "40544",
      "name": "GSAT0203 (GALILEO 7)",
      "noradId": 40544,
      "line1": "1 40544U 15017A   26166.45306799 -.00000083  00000+0  00000+0 0  9995",
      "line2": "2 40544  56.7863 341.6427 0002092 278.6810  81.2938  1.70475984 69175",
      "category": "satellite"
    },
    {
      "id": "40545",
      "name": "GSAT0204 (GALILEO 8)",
      "noradId": 40545,
      "line1": "1 40545U 15017B   26165.53569013 -.00000079  00000+0  00000+0 0  9999",
      "line2": "2 40545  56.7953 341.6863 0001910 248.0709 111.9109  1.70475571 32203",
      "category": "satellite"
    }
  ]
}